[{"OBJECT_NAME":"GPS BIII-6  (PRN 28)","OBJECT_ID":"2023-009A","EPOCH":"2026-03-28T04:24:38.672352","MEAN_MOTION":2.00547447,"ECCENTRICITY":0.00053805,"INCLINATION":55.1104,"RA_OF_ASC_NODE":151.7031,"ARG_OF_PERICENTER":326.6502,"MEAN_ANOMALY":28.0595,"EPHEMERIS_TYPE":0,"CLASSIFICATION_TYPE":"U","NORAD_CAT_ID":55268,"ELEMENT_SET_NO":999,"REV_AT_EPOCH":2361,"BSTAR":0,"MEAN_MOTION_DOT":0,"MEAN_MOTION_DDOT":0},{"OBJECT_NAME":"BEIDOU-3 G4 (C62)","OBJECT_ID":"2023-066A","EPOCH":"2026-04-04T22:00:35.476992","MEAN_MOTION":1.00270899,"ECCENTRICITY":0.00029138,"INCLINATION":0.5937,"RA_OF_ASC_NODE":315.8774,"ARG_OF_PERICENTER":158.121,"MEAN_ANOMALY":189.4361,"EPHEMERIS_TYPE":0,"CLASSIFICATION_TYPE":"U","NORAD_CAT_ID":56564,"ELEMENT_SET_NO":999,"REV_AT_EPOCH":1065,"BSTAR":0,"MEAN_MOTION_DOT":-2.81e-6,"MEAN_MOTION_DDOT":0},{"OBJECT_NAME":"NVS-01 (IRNSS-1J)","OBJECT_ID":"2023-076A","EPOCH":"2026-04-04T21:57:28.275840","MEAN_MOTION":1.00266541,"ECCENTRICITY":0.00065231,"INCLINATION":2.3417,"RA_OF_ASC_NODE":247.4386,"ARG_OF_PERICENTER":55.6009,"MEAN_ANOMALY":348.962,"EPHEMERIS_TYPE":0,"CLASSIFICATION_TYPE":"U","NORAD_CAT_ID":56759,"ELEMENT_SET_NO":999,"REV_AT_EPOCH":1038,"BSTAR":0,"MEAN_MOTION_DOT":-3.38e-6,"MEAN_MOTION_DDOT":0},{"OBJECT_NAME":"COSMOS 2569 (703K)","OBJECT_ID":"2023-114A","EPOCH":"2026-04-04T02:39:24.054912","MEAN_MOTION":2.13103947,"ECCENTRICITY":0.00128437,"INCLINATION":65.2614,"RA_OF_ASC_NODE":75.1171,"ARG_OF_PERICENTER":293.7768,"MEAN_ANOMALY":66.0733,"EPHEMERIS_TYPE":0,"CLASSIFICATION_TYPE":"U","NORAD_CAT_ID":57517,"ELEMENT_SET_NO":999,"REV_AT_EPOCH":2068,"BSTAR":0,"MEAN_MOTION_DOT":-4.0e-8,"MEAN_MOTION_DDOT":0},{"OBJECT_NAME":"BEIDOU-3 M28 (C50)","OBJECT_ID":"2023-207A","EPOCH":"2026-04-04T17:39:46.264896","MEAN_MOTION":1.86229828,"ECCENTRICITY":0.00049189,"INCLINATION":55.6901,"RA_OF_ASC_NODE":64.7795,"ARG_OF_PERICENTER":314.0672,"MEAN_ANOMALY":45.8647,"EPHEMERIS_TYPE":0,"CLASSIFICATION_TYPE":"U","NORAD_CAT_ID":58654,"ELEMENT_SET_NO":999,"REV_AT_EPOCH":1547,"BSTAR":0,"MEAN_MOTION_DOT":-4.3e-7,"MEAN_MOTION_DDOT":0},{"OBJECT_NAME":"BEIDOU-3 M26 (C48)","OBJECT_ID":"2023-207B","EPOCH":"2026-03-30T03:55:59.700288","MEAN_MOTION":1.86229633,"ECCENTRICITY":0.00055685,"INCLINATION":55.687,"RA_OF_ASC_NODE":64.9536,"ARG_OF_PERICENTER":296.6294,"MEAN_ANOMALY":63.3008,"EPHEMERIS_TYPE":0,"CLASSIFICATION_TYPE":"U","NORAD_CAT_ID":58655,"ELEMENT_SET_NO":999,"REV_AT_EPOCH":1535,"BSTAR":0,"MEAN_MOTION_DOT":-1.9e-7,"MEAN_MOTION_DDOT":0},{"OBJECT_NAME":"GSAT0225 (GALILEO 29)","OBJECT_ID":"2024-079A","EPOCH":"2026-03-28T01:49:00.365952","MEAN_MOTION":1.70474547,"ECCENTRICITY":0.00027404,"INCLINATION":55.0678,"RA_OF_ASC_NODE":103.3445,"ARG_OF_PERICENTER":270.8462,"MEAN_ANOMALY":214.737,"EPHEMERIS_TYPE":0,"CLASSIFICATION_TYPE":"U","NORAD_CAT_ID":59598,"ELEMENT_SET_NO":999,"REV_AT_EPOCH":1193,"BSTAR":0,"MEAN_MOTION_DOT":3.9e-7,"MEAN_MOTION_DDOT":0},{"OBJECT_NAME":"GSAT0227 (GALILEO 30)","OBJECT_ID":"2024-079C","EPOCH":"2026-04-04T16:19:18.244992","MEAN_MOTION":1.704747,"ECCENTRICITY":7.831e-5,"INCLINATION":55.067,"RA_OF_ASC_NODE":103.1309,"ARG_OF_PERICENTER":7.5517,"MEAN_ANOMALY":352.4755,"EPHEMERIS_TYPE":0,"CLASSIFICATION_TYPE":"U","NORAD_CAT_ID":59600,"ELEMENT_SET_NO":999,"REV_AT_EPOCH":1211,"BSTAR":0,"MEAN_MOTION_DOT":2.8e-7,"MEAN_MOTION_DDOT":0},{"OBJECT_NAME":"GSAT0232 (GALILEO 32)","OBJECT_ID":"2024-167A","EPOCH":"2026-04-01T09:20:34.784736","MEAN_MOTION":1.70474484,"ECCENTRICITY":0.00040532,"INCLINATION":55.2109,"RA_OF_ASC_NODE":223.4183,"ARG_OF_PERICENTER":206.9701,"MEAN_ANOMALY":148.926,"EPHEMERIS_TYPE":0,"CLASSIFICATION_TYPE":"U","NORAD_CAT_ID":61182,"ELEMENT_SET_NO":999,"REV_AT_EPOCH":956,"BSTAR":0,"MEAN_MOTION_DOT":-2.4e-7,"MEAN_MOTION_DDOT":0},{"OBJECT_NAME":"GSAT0226 (GALILEO 31)","OBJECT_ID":"2024-167B","EPOCH":"2026-04-04T19:38:35.206656","MEAN_MOTION":1.70474512,"ECCENTRICITY":0.00014542,"INCLINATION":55.2076,"RA_OF_ASC_NODE":223.3318,"ARG_OF_PERICENTER":166.2558,"MEAN_ANOMALY":225.5556,"EPHEMERIS_TYPE":0,"CLASSIFICATION_TYPE":"U","NORAD_CAT_ID":61183,"ELEMENT_SET_NO":999,"REV_AT_EPOCH":960,"BSTAR":0,"MEAN_MOTION_DOT":-5.0e-8,"MEAN_MOTION_DDOT":0},{"OBJECT_NAME":"BEIDOU-3 M25 (C47)","OBJECT_ID":"2024-168B","EPOCH":"2026-04-04T02:03:48.623616","MEAN_MOTION":1.86230346,"ECCENTRICITY":0.00037254,"INCLINATION":54.5395,"RA_OF_ASC_NODE":304.817,"ARG_OF_PERICENTER":321.6272,"MEAN_ANOMALY":215.3942,"EPHEMERIS_TYPE":0,"CLASSIFICATION_TYPE":"U","NORAD_CAT_ID":61186,"ELEMENT_SET_NO":999,"REV_AT_EPOCH":1040,"BSTAR":0,"MEAN_MOTION_DOT":-6.4e-7,"MEAN_MOTION_DDOT":0},{"OBJECT_NAME":"BEIDOU-3 M27 (C49)","OBJECT_ID":"2024-168C","EPOCH":"2026-04-03T21:16:28.636320","MEAN_MOTION":1.86230456,"ECCENTRICITY":0.00028765,"INCLINATION":54.5346,"RA_OF_ASC_NODE":304.8072,"ARG_OF_PERICENTER":31.7599,"MEAN_ANOMALY":146.4859,"EPHEMERIS_TYPE":0,"CLASSIFICATION_TYPE":"U","NORAD_CAT_ID":61187,"ELEMENT_SET_NO":999,"REV_AT_EPOCH":787,"BSTAR":0,"MEAN_MOTION_DOT":-6.4e-7,"MEAN_MOTION_DDOT":0},{"OBJECT_NAME":"GPS BIII-7  (PRN 01)","OBJECT_ID":"2024-242A","EPOCH":"2026-04-04T07:21:38.597472","MEAN_MOTION":2.0057043,"ECCENTRICITY":0.00165831,"INCLINATION":54.879,"RA_OF_ASC_NODE":337.1781,"ARG_OF_PERICENTER":1.2127,"MEAN_ANOMALY":180.4973,"EPHEMERIS_TYPE":0,"CLASSIFICATION_TYPE":"U","NORAD_CAT_ID":62339,"ELEMENT_SET_NO":999,"REV_AT_EPOCH":977,"BSTAR":0,"MEAN_MOTION_DOT":-9.5e-7,"MEAN_MOTION_DDOT":0},{"OBJECT_NAME":"NVS-02 (IRNSS-1K)","OBJECT_ID":"2025-020A","EPOCH":"2026-04-02T16:56:20.184288","MEAN_MOTION":2.17801725,"ECCENTRICITY":0.73499893,"INCLINATION":20.8181,"RA_OF_ASC_NODE":286.9027,"ARG_OF_PERICENTER":99.1827,"MEAN_ANOMALY":342.5473,"EPHEMERIS_TYPE":0,"CLASSIFICATION_TYPE":"U","NORAD_CAT_ID":62850,"ELEMENT_SET_NO":999,"REV_AT_EPOCH":933,"BSTAR":0.0013316714,"MEAN_MOTION_DOT":1.763e-5,"MEAN_MOTION_DDOT":0},{"OBJECT_NAME":"QZS-6 (QZSS/PRN 200)","OBJECT_ID":"2025-023A","EPOCH":"2026-04-04T22:05:50.201952","MEAN_MOTION":1.00274056,"ECCENTRICITY":0.00021082,"INCLINATION":0.0345,"RA_OF_ASC_NODE":279.2457,"ARG_OF_PERICENTER":107.4151,"MEAN_ANOMALY":228.5466,"EPHEMERIS_TYPE":0,"CLASSIFICATION_TYPE":"U","NORAD_CAT_ID":62876,"ELEMENT_SET_NO":999,"REV_AT_EPOCH":422,"BSTAR":0,"MEAN_MOTION_DOT":-2.33e-6,"MEAN_MOTION_DDOT":0},{"OBJECT_NAME":"COSMOS 2584 (704K)","OBJECT_ID":"2025-042A","EPOCH":"2026-04-03T01:25:04.452384","MEAN_MOTION":2.13103586,"ECCENTRICITY":0.00073027,"INCLINATION":65.0428,"RA_OF_ASC_NODE":75.3546,"ARG_OF_PERICENTER":238.7034,"MEAN_ANOMALY":121.2121,"EPHEMERIS_TYPE":0,"CLASSIFICATION_TYPE":"U","NORAD_CAT_ID":63130,"ELEMENT_SET_NO":999,"REV_AT_EPOCH":844,"BSTAR":0,"MEAN_MOTION_DOT":-4.0e-8,"MEAN_MOTION_DDOT":0},{"OBJECT_NAME":"GPS BIII-8  (PRN 21)","OBJECT_ID":"2025-116A","EPOCH":"2026-04-04T19:14:56.524704","MEAN_MOTION":2.00551336,"ECCENTRICITY":0.00089888,"INCLINATION":55.188,"RA_OF_ASC_NODE":34.0836,"ARG_OF_PERICENTER":331.9615,"MEAN_ANOMALY":31.0765,"EPHEMERIS_TYPE":0,"CLASSIFICATION_TYPE":"U","NORAD_CAT_ID":64202,"ELEMENT_SET_NO":999,"REV_AT_EPOCH":640,"BSTAR":0,"MEAN_MOTION_DOT":-8.7e-7,"MEAN_MOTION_DDOT":0}]
