GPS BIII-6  (PRN 28)    
1 55268U 23009A   26087.18378093  .00000000  00000+0  00000+0 0  9990
2 55268  55.1104 151.7031 0005380 326.6502  28.0595  2.00547447 23616
BEIDOU-3 G4 (C62)       
1 56564U 23066A   26094.91707728 -.00000281  00000+0  00000+0 0  9995
2 56564   0.5937 315.8774 0002913 158.1210 189.4361  1.00270899 10650
NVS-01 (IRNSS-1J)       
1 56759U 23076A   26094.91491060 -.00000338  00000+0  00000+0 0  9994
2 56759   2.3417 247.4386 0006523  55.6009 348.9620  1.00266541 10385
COSMOS 2569 (703K)      
1 57517U 23114A   26094.11069508 -.00000004  00000+0  00000+0 0  9990
2 57517  65.2614  75.1171 0012843 293.7768  66.0733  2.13103947 20684
BEIDOU-3 M28 (C50)      
1 58654U 23207A   26094.73595214 -.00000043  00000+0  00000+0 0  9995
2 58654  55.6901  64.7795 0004918 314.0672  45.8647  1.86229828 15476
BEIDOU-3 M26 (C48)      
1 58655U 23207B   26089.16388542 -.00000019  00000+0  00000+0 0  9994
2 58655  55.6870  64.9536 0005568 296.6294  63.3008  1.86229633 15351
GSAT0225 (GALILEO 29)   
1 59598U 24079A   26087.07569868  .00000039  00000+0  00000+0 0  9990
2 59598  55.0678 103.3445 0002740 270.8462 214.7370  1.70474547 11938
GSAT0227 (GALILEO 30)   
1 59600U 24079C   26094.68007228  .00000028  00000+0  00000+0 0  9994
2 59600  55.0670 103.1309 0000783   7.5517 352.4755  1.70474700 12111
GSAT0232 (GALILEO 32)   
1 61182U 24167A   26091.38929149 -.00000024  00000+0  00000+0 0  9996
2 61182  55.2109 223.4183 0004053 206.9701 148.9260  1.70474484  9561
GSAT0226 (GALILEO 31)   
1 61183U 24167B   26094.81846304 -.00000005  00000+0  00000+0 0  9998
2 61183  55.2076 223.3318 0001454 166.2558 225.5556  1.70474512  9601
BEIDOU-3 M25 (C47)      
1 61186U 24168B   26094.08597944 -.00000064  00000+0  00000+0 0  9999
2 61186  54.5395 304.8170 0003725 321.6272 215.3942  1.86230346 10402
BEIDOU-3 M27 (C49)      
1 61187U 24168C   26093.88644255 -.00000064  00000+0  00000+0 0  9995
2 61187  54.5346 304.8072 0002876  31.7599 146.4859  1.86230456  7877
GPS BIII-7  (PRN 01)    
1 62339U 24242A   26094.30669673 -.00000095  00000+0  00000+0 0  9991
2 62339  54.8790 337.1781 0016583   1.2127 180.4973  2.00570430  9770
NVS-02 (IRNSS-1K)       
1 62850U 25020A   26092.70578917  .00001763  00000+0  13317-2 0  9996
2 62850  20.8181 286.9027 7349989  99.1827 342.5473  2.17801725  9338
QZS-6 (QZSS/PRN 200)    
1 62876U 25023A   26094.92071993 -.00000233  00000+0  00000+0 0  9999
2 62876   0.0345 279.2457 0002108 107.4151 228.5466  1.00274056  4225
COSMOS 2584 (704K)      
1 63130U 25042A   26093.05907931 -.00000004  00000+0  00000+0 0  9993
2 63130  65.0428  75.3546 0007302 238.7034 121.2121  2.13103586  8444
GPS BIII-8  (PRN 21)    
1 64202U 25116A   26094.80204311 -.00000087  00000+0  00000+0 0  9993
2 64202  55.1880  34.0836 0008988 331.9615  31.0765  2.00551336  6405
